{"type":"Feature","properties":{"name":"British Empire","source":"Cliopatria v0.2.0, the British Empire row for 1825-1827 (CC BY 4.0)","method":"Cliopatria's own shape of British India in 1827, clipped to 91.74-96.68\u00b0E, 25.64-29.07\u00b0N: the Brahmaputra valley of Upper Assam, which Cliopatria leaves out in 1828-1833 and draws again from 1834."},"geometry":{"type":"MultiPolygon","coordinates":[[[[92.147,26.9009],[92.2221,26.9009],[93.4994,26.9009],[94.0054,27.158],[94.137,27.4152],[94.4059,27.6081],[94.7969,27.6724],[95.2327,27.9295],[96.0164,28.0581],[95.9719,27.5438],[96.1077,27.4795],[95.9889,27.2866],[94.7492,26.7723],[94.7971,26.6437],[95.0703,26.5151],[95.1454,26.5151],[95.079,26.1937],[95.1899,26.0008],[94.8828,25.6365],[92.8043,25.6365],[92.804,25.6793],[92.3913,25.8722],[92.4037,25.9365],[92.3288,25.9365],[91.7371,25.9365],[91.7371,26.7723],[91.8199,26.7723],[92.147,26.9009]]]]}}