{"type":"Feature","properties":{"name":"The Door Peninsula","source":"Treaty of Washington (1831) with the Menominee","method":"Natural Earth's land, less its lakes, east of Green Bay's middle, from 44.45\u00b0 N to the islands off the peninsula's tip, less Cliopatria v0.2.0's United States row of 1834-35."},"geometry":{"type":"MultiPolygon","coordinates":[[[[-87.8828,44.6104],[-87.8383,44.6343],[-87.7672,44.6566],[-87.7558,44.6652],[-87.7195,44.7084],[-87.7285,44.7237],[-87.6962,44.7723],[-87.6431,44.8274],[-87.6176,44.8444],[-87.5897,44.8559],[-87.5646,44.8547],[-87.5702,44.8374],[-87.5161,44.875],[-87.4933,44.8642],[-87.4501,44.8862],[-87.4194,44.8677],[-87.3904,44.8332],[-87.3714,44.8188],[-87.328,44.8035],[-87.3293,44.7814],[-87.3604,44.7158],[-87.3654,44.6925],[-87.3924,44.651],[-87.4404,44.6069],[-87.466,44.5701],[-87.4855,44.5262],[-87.5047,44.45],[-87.6414,44.45],[-87.5122,44.6466],[-87.7125,44.7119],[-87.7171,44.5813],[-87.9109,44.5813],[-87.9043,44.5936],[-87.8828,44.6104]]],[[[-86.99,45.2957],[-86.983,45.2922],[-86.9917,45.2624],[-86.9817,45.2445],[-86.9948,45.2239],[-87.033,45.2421],[-87.057,45.2409],[-87.0432,45.2239],[-87.0569,45.1824],[-87.0432,45.1488],[-87.0711,45.1585],[-87.0978,45.1556],[-87.0879,45.1426],[-87.0495,45.1147],[-87.0563,45.1064],[-87.0773,45.1011],[-87.0853,45.0882],[-87.0875,45.0658],[-87.1115,45.0731],[-87.1227,45.0693],[-87.1388,45.039],[-87.1842,44.9863],[-87.1971,44.9548],[-87.1736,44.9366],[-87.2145,44.9154],[-87.2316,44.8783],[-87.2804,44.8303],[-87.2965,44.8206],[-87.3374,44.8203],[-87.3739,44.845],[-87.3992,44.8827],[-87.4063,44.9224],[-87.3932,44.9648],[-87.3687,45.0004],[-87.31,45.0531],[-87.2896,45.0531],[-87.2896,45.0731],[-87.271,45.0982],[-87.2664,45.1311],[-87.2485,45.1662],[-87.235,45.1756],[-87.1874,45.1682],[-87.1727,45.188],[-87.139,45.1971],[-87.1313,45.2065],[-87.1115,45.2648],[-87.0879,45.2698],[-87.082,45.2927],[-87.0711,45.3066],[-87.0458,45.2925],[-86.99,45.2957]]],[[[-86.9438,45.4308],[-86.9204,45.4096],[-86.8645,45.4158],[-86.8529,45.4037],[-86.854,45.3872],[-86.8719,45.3543],[-86.8645,45.3404],[-86.927,45.3475],[-86.9646,45.3428],[-86.9743,45.3475],[-86.96,45.3575],[-86.9566,45.3663],[-86.9606,45.3919],[-86.9525,45.4231],[-86.9438,45.4308]]]]}}
