{"type":"Feature","properties":{"name":"Hyderabad State","source":"Cliopatria v0.2.0, the Hyderabad State row for 1947 (CC BY 4.0)","method":"Cliopatria's own shape of the Nizam's dominions in 1947, which the 1800 cession of the Ceded Districts had set."},"geometry":{"type":"MultiPolygon","coordinates":[[[[77.5151,19.7648],[78.1076,19.7648],[78.1301,19.9577],[77.7671,20.022],[77.871,20.2791],[78.5156,20.0862],[79.116,20.1505],[79.2414,19.9577],[79.5454,20.022],[79.5965,19.8291],[80.0024,19.5077],[80.0457,19.2505],[80.377,18.9291],[80.3616,18.8005],[80.7588,18.4148],[80.9066,18.4148],[81.0897,18.0933],[81.5251,18.0291],[81.502,17.8362],[81.3976,17.579],[81.0722,17.3219],[80.9463,16.8719],[80.4967,16.8076],[80.4012,16.6147],[79.952,16.5504],[79.6219,16.229],[79.0925,16.1004],[78.9179,15.8433],[77.446,15.8433],[76.9781,15.5861],[76.9588,15.3933],[76.7989,15.2647],[76.425,15.2004],[76.2968,15.3933],[76.4091,15.779],[76.3355,15.779],[76.3552,15.9718],[76.4488,16.1647],[76.8236,16.229],[77.2202,17.8362],[77.0798,17.9005],[77.0422,18.2219],[76.5918,18.1576],[76.5324,18.2862],[76.3846,18.2862],[76.0513,18.6076],[75.8367,18.6719],[75.6581,19.0577],[75.4578,19.2505],[75.3098,19.2505],[75.4054,19.4434],[75.7755,19.4434],[75.7972,19.6362],[75.4558,19.8934],[74.8105,20.0862],[74.7577,20.2791],[75.0899,20.6005],[75.6019,20.5362],[75.9871,20.6648],[76.1879,20.472],[76.2257,20.1505],[76.8332,20.2791],[77.115,20.1505],[77.4411,19.7648],[77.5151,19.7648]]]]}}
