{"type": "Feature", "properties": {"name": "Sheikhdom of Abu Dhabi", "source": "Cliopatria v0.2.0, the Emirate of Diriyah row for 1814 and the Trucial States row for 1820 (CC BY 4.0)", "method": "The land both Cliopatria's Emirate of Diriyah of 1814 and its Trucial States of 1820 hold, clipped to 51.8-55.7\u00b0E, 22.4-24.0\u00b0N: Liwa and the Dhafra interior, which Cliopatria leaves out in 1815-1819."}, "geometry": {"type": "MultiPolygon", "coordinates": [[[[55.558346, 23.943457], [55.627262, 23.879168], [55.502544, 23.300571], [55.348057, 23.236284], [55.300159, 22.657698], [55.140881, 22.529123], [52.635159, 22.850559], [52.084248, 23.429148], [52.094437, 23.557724], [51.811512, 23.750589], [51.821865, 23.879168], [51.8, 23.879168], [51.8, 24.0], [55.7, 24.0], [55.7, 23.943457], [55.632973, 23.943457], [55.558346, 23.943457]]]]}}
