{"type": "Feature", "properties": {"name": "Kingdom of Manipur", "source": "Cliopatria v0.2.0, the Burma row for 1824 (CC BY 4.0)", "method": "Cliopatria's own shape of Burma in 1824, clipped to 92.8-95.2\u00b0E, 23.3-25.9\u00b0N: the Manipur valley and hills Burma held until 1825, which Cliopatria leaves out in 1826-1833 and draws as British from 1834."}, "geometry": {"type": "MultiPolygon", "coordinates": [[[[93.372215, 23.814878], [93.414795, 24.072035], [93.063087, 24.200613], [93.095779, 24.393482], [92.968445, 24.522062], [93.480301, 25.293558], [93.528549, 25.550728], [93.353111, 25.807899], [92.990875, 25.872192], [92.963866, 25.9], [95.2, 25.9], [95.2, 23.3], [93.438602, 23.3], [93.479591, 23.557724], [93.372215, 23.814878]]]]}}
