{"type":"Feature","properties":{"name":"Kingdom of Mysore","source":"J. G. Bartholomew, 'Madras (Southern Section) with Mysore, Coorg & Travancore', Imperial Gazetteer of India, Atlas (1909)","method":"The yellow native-state fill traced from the plate and georeferenced on its 76E/78E and 12N/14N graticule; bounds 74.62-78.57E, 11.59-15.03N against the Gazetteer's 74 38'-78 36'E, 11 36'-15 2'N."},"geometry":{"type":"MultiPolygon","coordinates":[[[[75.2386,14.7272],[75.2396,14.6837],[75.277,14.676],[75.2775,14.6543],[75.3445,14.6534],[75.3608,14.588],[75.3906,14.5877],[75.4137,14.5512],[75.4161,14.4426],[75.5794,14.4478],[75.5787,14.484],[75.6158,14.4836],[75.637,14.5412],[75.7039,14.5403],[75.7097,14.6198],[75.7469,14.6193],[75.7535,14.6626],[75.7983,14.6548],[75.7987,14.6331],[75.8288,14.6183],[75.8375,14.5531],[75.8821,14.5526],[75.9198,14.5232],[76.0387,14.529],[76.0673,14.5936],[76.0503,14.7093],[76.065,14.7236],[76.266,14.721],[76.2812,14.6991],[76.311,14.6987],[76.3188,14.677],[76.3486,14.6766],[76.3572,14.6044],[76.4243,14.5963],[76.4397,14.5601],[76.5141,14.5591],[76.5435,14.5804],[76.572,14.6665],[76.6235,14.7091],[76.6222,14.7956],[76.6591,14.8239],[76.6264,15.0261],[76.6936,15.018],[76.7389,14.9813],[76.8435,14.9655],[76.844,14.9223],[76.822,14.8938],[76.831,14.7784],[76.8238,14.7569],[76.7569,14.7506],[76.7585,14.6281],[76.7668,14.5704],[76.7816,14.5702],[76.7819,14.5486],[76.8043,14.5411],[76.8272,14.4976],[76.9463,14.4818],[76.9392,14.4531],[76.917,14.4533],[76.91,14.4174],[76.858,14.418],[76.8588,14.3532],[76.9186,14.3237],[76.919,14.2877],[77.0751,14.2715],[77.0748,14.3003],[77.097,14.3001],[77.1116,14.3287],[77.1112,14.3575],[77.1335,14.3572],[77.1486,14.3354],[77.2599,14.3413],[77.2605,14.2838],[77.2829,14.2692],[77.3572,14.2683],[77.3566,14.3258],[77.4236,14.3107],[77.4238,14.2891],[77.4758,14.2813],[77.4844,14.1519],[77.3212,14.1537],[77.3222,14.0531],[77.3669,14.031],[77.3674,13.9807],[77.3971,13.9732],[77.3976,13.9157],[77.4124,13.9156],[77.4053,13.8869],[77.3534,13.8874],[77.3541,13.8227],[77.3765,13.8009],[77.4209,13.8005],[77.429,13.7214],[77.5178,13.7206],[77.5248,13.7636],[77.6359,13.7553],[77.6356,13.7913],[77.6652,13.791],[77.6651,13.8053],[77.7833,13.8257],[77.7829,13.8903],[77.7977,13.8902],[77.8119,13.9761],[77.8342,13.9759],[77.8343,13.9615],[77.9676,13.9602],[77.9754,13.8955],[78.0495,13.8948],[78.0571,13.8445],[78.0867,13.8443],[78.0951,13.6434],[78.1247,13.6432],[78.1619,13.5998],[78.2358,13.5992],[78.2433,13.5776],[78.3689,13.5765],[78.3619,13.4763],[78.3472,13.4406],[78.3324,13.4407],[78.3327,13.3619],[78.3844,13.3544],[78.3919,13.3257],[78.4288,13.3254],[78.4288,13.3111],[78.5321,13.3102],[78.5544,13.217],[78.5692,13.2097],[78.5693,13.1525],[78.4956,13.1387],[78.4885,13.0529],[78.4516,13.0531],[78.4446,12.9243],[78.4595,12.8526],[78.4227,12.8672],[78.4226,12.8958],[78.3196,12.9036],[78.3197,12.875],[78.2976,12.8751],[78.2977,12.8536],[78.2241,12.8469],[78.2172,12.7467],[78.1216,12.7472],[78.0847,12.7761],[77.9891,12.7767],[77.989,12.7982],[77.9151,12.856],[77.8194,12.8566],[77.8122,12.8352],[77.7828,12.8353],[77.7688,12.735],[77.7321,12.7208],[77.7324,12.6849],[77.7103,12.685],[77.7105,12.6635],[77.615,12.6569],[77.6079,12.6282],[77.5932,12.6283],[77.5867,12.5278],[77.6014,12.5277],[77.6017,12.4846],[77.6312,12.4701],[77.6314,12.4414],[77.6168,12.4342],[77.6174,12.3553],[77.5808,12.3411],[77.581,12.3195],[77.5371,12.3125],[77.53,12.2838],[77.4861,12.2768],[77.4789,12.2553],[77.4496,12.2554],[77.4421,12.277],[77.3101,12.2776],[77.2659,12.2993],[77.1414,12.2927],[77.1053,12.2353],[77.0986,12.1849],[77.0546,12.1851],[77.0706,12.0699],[77.0925,12.0698],[77.0928,12.0483],[77.1519,11.9905],[77.1398,11.7604],[77.096,11.7533],[77.0964,11.7173],[77.0672,11.7174],[77.0523,11.7462],[76.9061,11.7537],[76.8849,11.6962],[76.8264,11.6963],[76.8277,11.5955],[76.8132,11.5883],[76.5574,11.6104],[76.542,11.6681],[76.4105,11.6684],[76.4018,11.7621],[76.2555,11.7697],[76.225,11.8492],[76.1154,11.8422],[76.1056,11.9867],[76.1341,12.0299],[76.1247,12.1526],[76.0801,12.1889],[76.0792,12.2395],[76.0345,12.283],[76.0116,12.3336],[75.9456,12.3339],[75.9155,12.3774],[75.8935,12.3775],[75.8925,12.4281],[75.9217,12.4352],[75.928,12.493],[75.9496,12.5145],[75.9484,12.5795],[75.9041,12.5942],[75.9219,12.8253],[75.8262,12.8259],[75.8291,12.6741],[75.7778,12.6672],[75.7702,12.6817],[75.5935,12.6972],[75.592,12.7695],[75.5842,12.7913],[75.5621,12.7914],[75.5751,12.8781],[75.5525,12.9],[75.5519,12.9289],[75.4996,12.9655],[75.4907,13.0379],[75.4307,13.089],[75.4302,13.1107],[75.3416,13.1186],[75.3402,13.1837],[75.2738,13.1842],[75.2597,13.1554],[75.223,13.1484],[75.2088,13.1268],[75.1569,13.1416],[75.1485,13.1852],[75.1104,13.2362],[75.1095,13.2724],[75.0867,13.3016],[75.057,13.3091],[75.049,13.3381],[75.0481,13.3744],[75.0924,13.374],[75.09,13.4755],[75.0076,13.5197],[74.9899,13.6431],[74.9451,13.658],[74.9433,13.7305],[74.9204,13.7597],[74.9195,13.796],[74.8819,13.8181],[74.8649,13.9053],[74.8203,13.913],[74.8194,13.9493],[74.7156,13.9504],[74.6839,14.0305],[74.6382,14.0746],[74.6215,14.1473],[74.6363,14.1472],[74.6357,14.169],[74.6654,14.1686],[74.664,14.2195],[74.7154,14.2406],[74.7223,14.2623],[74.938,14.2454],[74.9432,14.3323],[74.9728,14.3392],[74.9722,14.361],[74.9943,14.368],[74.9922,14.455],[74.9251,14.463],[74.9242,14.4993],[74.9465,14.499],[74.9449,14.5643],[74.9819,14.5711],[74.9808,14.6146],[75.04,14.6283],[75.0393,14.6573],[75.0691,14.657],[75.1193,14.736],[75.2386,14.7272]]]]}}
