{"type":"Feature","properties":{"name":"Nazi Germany scraps","note":"The pieces of Cliopatria v0.2.0's Nazi Germany row of 1936-37 under 5,000 km\u00b2 lying more than 1\u00b0 from its larger pieces, each widened by 0.01\u00b0."},"geometry":{"type":"MultiPolygon","coordinates":[[[[14.4975,36.8683],[14.5005,36.8753],[14.5075,36.8782],[14.5853,36.8782],[14.5925,36.8752],[14.5953,36.868],[14.5943,36.8036],[14.5933,36.7391],[14.5903,36.7322],[14.5833,36.7293],[14.5055,36.7293],[14.4984,36.7323],[14.4955,36.7395],[14.4965,36.8039],[14.4975,36.8683]]],[[[1.589,38.9977],[1.5918,38.9331],[1.5891,38.9257],[1.5818,38.9226],[1.5033,38.9226],[1.4964,38.9254],[1.4933,38.9322],[1.4904,38.9968],[1.4932,39.0041],[1.5004,39.0072],[1.579,39.0072],[1.5859,39.0045],[1.589,38.9977]]],[[[3.0597,39.3103],[2.9811,39.3103],[2.9741,39.3131],[2.9711,39.32],[2.9686,39.3846],[2.9714,39.3919],[2.9786,39.395],[3.0573,39.395],[3.0642,39.3922],[3.0673,39.3854],[3.0697,39.3207],[3.067,39.3134],[3.0597,39.3103]]],[[[3.9869,39.8276],[3.9799,39.8304],[3.9769,39.8373],[3.9747,39.902],[3.9775,39.9093],[3.9847,39.9123],[4.0636,39.9123],[4.0706,39.9095],[4.0736,39.9027],[4.0757,39.838],[4.0729,39.8307],[4.0658,39.8276],[3.9869,39.8276]]],[[[-8.9654,39.957],[-8.9721,39.9596],[-8.9753,39.966],[-8.9818,40.0307],[-8.9792,40.0384],[-8.9718,40.0417],[-8.8928,40.0417],[-8.8861,40.0391],[-8.8829,40.0327],[-8.8765,39.968],[-8.879,39.9603],[-8.8864,39.957],[-8.9654,39.957]]],[[[12.1299,41.8365],[12.0502,41.8365],[12.0431,41.8395],[12.0402,41.8466],[12.0407,41.9115],[12.0437,41.9185],[12.0507,41.9214],[12.1305,41.9214],[12.1376,41.9185],[12.1405,41.9114],[12.1399,41.8464],[12.137,41.8394],[12.1299,41.8365]]],[[[12.124,41.9693],[12.1211,41.9765],[12.1217,42.0414],[12.1246,42.0484],[12.1317,42.0513],[12.2016,42.0513],[12.2021,42.1064],[12.2051,42.1134],[12.2121,42.1163],[12.292,42.1163],[12.2991,42.1133],[12.302,42.1062],[12.3014,42.0513],[12.3711,42.0513],[12.3783,42.0484],[12.3811,42.0412],[12.3805,41.9763],[12.3775,41.9693],[12.3705,41.9664],[12.3006,41.9664],[12.3,41.9113],[12.2971,41.9043],[12.29,41.9014],[12.2103,41.9014],[12.2032,41.9044],[12.2003,41.9115],[12.2008,41.9664],[12.1311,41.9664],[12.124,41.9693]],[[12.2214,42.0313],[12.221,41.9864],[12.2808,41.9864],[12.2812,42.0313],[12.2214,42.0313]]],[[[11.1852,42.4311],[11.1823,42.4241],[11.1752,42.4212],[11.0952,42.4212],[11.0881,42.4241],[11.0852,42.4312],[11.0854,42.4962],[11.0884,42.5033],[11.0954,42.5062],[11.1755,42.5062],[11.1826,42.5032],[11.1855,42.4961],[11.1852,42.4311]]],[[[2.1324,42.4862],[1.8123,42.4862],[1.805,42.4893],[1.8023,42.4967],[1.8058,42.5038],[1.8827,42.5688],[1.8891,42.5712],[1.9692,42.5712],[1.9729,42.5705],[2.1361,42.5055],[2.1411,42.501],[2.1422,42.4943],[2.1387,42.4885],[2.1324,42.4862]]],[[[11.0156,42.5512],[11.0085,42.5541],[11.0056,42.5612],[11.0058,42.6262],[11.0087,42.6333],[11.0158,42.6362],[11.0959,42.6362],[11.103,42.6333],[11.1059,42.6262],[11.1057,42.5612],[11.1027,42.5541],[11.0957,42.5512],[11.0156,42.5512]]],[[[10.3851,42.6913],[10.3821,42.6842],[10.3751,42.6812],[10.2949,42.6812],[10.2879,42.6842],[10.2849,42.6912],[10.2849,42.7563],[10.2878,42.7634],[10.2949,42.7663],[10.375,42.7663],[10.3821,42.7634],[10.385,42.7563],[10.3851,42.6913]]],[[[16.249,43.4623],[16.1685,43.4623],[16.1613,43.4654],[16.1585,43.4727],[16.1606,43.5378],[16.1637,43.5447],[16.1706,43.5475],[16.2511,43.5475],[16.2583,43.5445],[16.2611,43.5372],[16.259,43.472],[16.256,43.4652],[16.249,43.4623]]],[[[7.1528,43.5927],[7.1458,43.5955],[7.1428,43.6025],[7.1417,43.6578],[7.071,43.6578],[7.064,43.6607],[7.061,43.6676],[7.0597,43.7328],[7.0625,43.74],[7.0697,43.743],[7.14,43.743],[7.1389,43.798],[7.1418,43.8052],[7.1489,43.8082],[7.2296,43.8082],[7.2366,43.8053],[7.2396,43.7984],[7.2408,43.7332],[7.238,43.726],[7.2308,43.723],[7.1604,43.723],[7.1613,43.6778],[7.2321,43.6778],[7.2391,43.675],[7.2421,43.668],[7.2434,43.6029],[7.2405,43.5957],[7.2334,43.5927],[7.1528,43.5927]]],[[[12.5394,43.668],[12.5401,43.723],[12.4696,43.723],[12.4625,43.726],[12.4596,43.7331],[12.4603,43.7983],[12.4633,43.8053],[12.4703,43.8082],[12.5411,43.8082],[12.5417,43.8635],[12.5447,43.8705],[12.5517,43.8734],[12.6323,43.8734],[12.6395,43.8704],[12.6423,43.8633],[12.6417,43.8082],[12.7122,43.8082],[12.7193,43.8052],[12.7222,43.7981],[12.7214,43.7329],[12.7184,43.7259],[12.7114,43.723],[12.6407,43.723],[12.64,43.6677],[12.637,43.6607],[12.63,43.6578],[12.5494,43.6578],[12.5423,43.6608],[12.5394,43.668]],[[12.6214,43.7882],[12.5608,43.7882],[12.5603,43.743],[12.6209,43.743],[12.6214,43.7882]]],[[[13.8596,44.7673],[13.8525,44.7703],[13.8496,44.7775],[13.8508,44.8428],[13.8538,44.8498],[13.8608,44.8526],[13.942,44.8526],[13.9491,44.8496],[13.952,44.8425],[13.9507,44.7771],[13.9477,44.7702],[13.9407,44.7673],[13.8596,44.7673]]],[[[3.9019,51.7911],[4.0718,51.7911],[4.0787,51.7884],[4.0818,51.7816],[4.0881,51.6477],[4.0854,51.6403],[4.0781,51.6372],[3.9084,51.6372],[3.9015,51.64],[3.8984,51.6468],[3.8919,51.7807],[3.8947,51.788],[3.9019,51.7911]]],[[[4.7784,52.9223],[4.7812,52.9296],[4.7884,52.9327],[4.8637,52.9327],[4.8613,52.9896],[4.8641,52.997],[4.8713,53.0],[4.957,53.0],[4.9639,52.9972],[4.967,52.9904],[4.9698,52.9231],[4.967,52.9158],[4.9598,52.9127],[4.8845,52.9127],[4.8869,52.8558],[4.8893,52.7981],[4.9653,52.7981],[4.9723,52.7953],[4.9753,52.7885],[4.978,52.724],[5.0674,52.5919],[5.069,52.585],[5.0657,52.5788],[5.0591,52.5763],[4.8881,52.5763],[4.8812,52.5791],[4.8782,52.5859],[4.8701,52.7781],[4.7941,52.7781],[4.7872,52.7808],[4.7841,52.7876],[4.7813,52.8549],[4.7784,52.9223]]],[[[5.3761,52.98],[5.3,52.98],[5.2931,52.9828],[5.29,52.9896],[5.2874,53.057],[5.2902,53.0643],[5.2974,53.0674],[5.3832,53.0674],[5.3901,53.0646],[5.3932,53.0578],[5.3954,53.0],[5.4715,53.0],[5.4784,52.9972],[5.4815,52.9904],[5.484,52.9231],[5.4865,52.8557],[5.4837,52.8484],[5.4765,52.8454],[5.4012,52.8454],[5.4034,52.7884],[5.4006,52.7811],[5.3934,52.7781],[5.3134,52.7781],[5.236,52.6484],[5.2274,52.6435],[5.0564,52.6435],[5.0491,52.6467],[5.0464,52.6542],[5.0501,52.6613],[5.2159,52.7958],[5.2222,52.7981],[5.2974,52.7981],[5.2952,52.855],[5.298,52.8623],[5.3052,52.8654],[5.3804,52.8654],[5.3783,52.9223],[5.3761,52.98]]],[[[0.106,53.7331],[0.117,53.5979],[0.1143,53.5904],[0.107,53.5871],[-0.0653,53.5871],[-0.0721,53.5898],[-0.0753,53.5963],[-0.0864,53.7315],[-0.0838,53.7391],[-0.0765,53.7423],[0.096,53.7423],[0.1028,53.7397],[0.106,53.7331]]],[[[-6.3157,58.2489],[-6.326,58.3183],[-6.3363,58.3877],[-6.334,58.3957],[-6.3264,58.3992],[-6.2367,58.3992],[-6.2301,58.3968],[-6.2268,58.3907],[-6.2165,58.3212],[-6.2062,58.2518],[-6.2086,58.2438],[-6.2161,58.2404],[-6.3058,58.2404],[-6.3123,58.2428],[-6.3157,58.2489]]],[[[-3.8579,58.666],[-3.8555,58.6739],[-3.848,58.6773],[-3.668,58.6773],[-3.6614,58.6748],[-3.6581,58.6685],[-3.6494,58.5989],[-3.6518,58.5911],[-3.6593,58.5877],[-3.8392,58.5877],[-3.8458,58.5902],[-3.8491,58.5964],[-3.8579,58.666]]],[[[-6.9572,62.4104],[-6.9538,62.4044],[-6.9418,62.3329],[-6.944,62.3248],[-6.9516,62.3213],[-7.1262,62.3213],[-7.116,62.2615],[-7.1183,62.2534],[-7.1259,62.2499],[-7.3122,62.2499],[-7.3186,62.2522],[-7.322,62.2582],[-7.3343,62.3296],[-7.3321,62.3377],[-7.3245,62.3413],[-7.1499,62.3413],[-7.1601,62.401],[-7.1579,62.4092],[-7.1502,62.4127],[-6.9637,62.4127],[-6.9572,62.4104]]],[[[10.4776,63.4728],[10.475,63.4805],[10.4789,63.4875],[10.5697,63.5567],[10.5702,63.624],[10.5728,63.6307],[10.5793,63.6339],[10.5863,63.6318],[10.7739,63.4875],[10.7778,63.4804],[10.7752,63.4728],[10.7678,63.4696],[10.4849,63.4696],[10.4776,63.4728]]],[[[23.1234,36.2879],[23.1201,36.2235],[23.117,36.2167],[23.1101,36.214],[23.0325,36.214],[23.0252,36.2171],[23.0225,36.2245],[23.0258,36.2889],[23.0289,36.2956],[23.0358,36.2984],[23.1134,36.2984],[23.1207,36.2953],[23.1234,36.2879]]],[[[25.5769,37.2004],[25.5842,37.1973],[25.5869,37.1898],[25.5743,36.9964],[25.5712,36.9898],[25.5644,36.9871],[25.3308,36.9871],[25.3246,36.9892],[25.3211,36.9948],[25.3217,37.0013],[25.412,37.1946],[25.4211,37.2004],[25.5769,37.2004]]],[[[23.5013,37.5122],[23.4982,37.5055],[23.4913,37.5028],[23.4133,37.5028],[23.406,37.5059],[23.4033,37.5133],[23.4069,37.5778],[23.41,37.5845],[23.4169,37.5873],[23.495,37.5873],[23.5022,37.5841],[23.5049,37.5767],[23.5013,37.5122]]],[[[20.8441,37.6317],[20.766,37.6317],[20.7588,37.6348],[20.756,37.6422],[20.7589,37.7067],[20.762,37.7135],[20.7689,37.7162],[20.847,37.7162],[20.8542,37.7132],[20.857,37.7058],[20.8541,37.6413],[20.851,37.6345],[20.8441,37.6317]]],[[[20.6144,37.907],[20.6213,37.9098],[20.6995,37.9098],[20.7067,37.9067],[20.7095,37.8993],[20.7066,37.8348],[20.7037,37.7703],[20.7006,37.7635],[20.6937,37.7607],[20.6156,37.7607],[20.6083,37.7638],[20.6056,37.7712],[20.6084,37.8357],[20.6113,37.9002],[20.6144,37.907]]],[[[23.758,37.8992],[23.7549,37.8925],[23.748,37.8898],[23.6698,37.8898],[23.6626,37.8929],[23.6599,37.9003],[23.6637,37.9649],[23.6668,37.9715],[23.6736,37.9743],[23.7518,37.9743],[23.7591,37.9711],[23.7618,37.9637],[23.758,37.8992]]],[[[20.3982,38.1478],[20.3199,38.1478],[20.3127,38.1509],[20.3099,38.1583],[20.3185,38.3519],[20.3216,38.3587],[20.3285,38.3615],[20.4068,38.3615],[20.414,38.3584],[20.4168,38.351],[20.4082,38.1574],[20.4051,38.1506],[20.3982,38.1478]]],[[[23.5478,38.4706],[23.5405,38.4737],[23.5378,38.4812],[23.5417,38.5457],[23.5448,38.5524],[23.5516,38.5551],[23.6301,38.5551],[23.6373,38.552],[23.64,38.5445],[23.6361,38.48],[23.633,38.4733],[23.6261,38.4706],[23.5478,38.4706]]],[[[20.6636,38.6079],[20.6602,38.602],[20.6538,38.5997],[20.4969,38.5997],[20.4897,38.6028],[20.4869,38.6102],[20.4929,38.7393],[20.496,38.7461],[20.5029,38.7489],[20.5813,38.7489],[20.5901,38.7437],[20.6625,38.6146],[20.6636,38.6079]]],[[[25.3684,39.8276],[25.2895,39.8276],[25.2822,39.8308],[25.2796,39.8384],[25.2843,39.9031],[25.2875,39.9097],[25.2943,39.9123],[25.3732,39.9123],[25.3806,39.9091],[25.3832,39.9016],[25.3784,39.8369],[25.3752,39.8303],[25.3684,39.8276]]],[[[25.8618,40.0864],[25.7828,40.0864],[25.7754,40.0897],[25.7728,40.0972],[25.7778,40.1619],[25.781,40.1685],[25.7878,40.1712],[25.8668,40.1712],[25.8741,40.168],[25.8768,40.1604],[25.8717,40.0957],[25.8685,40.0891],[25.8618,40.0864]]],[[[26.6731,40.3454],[26.594,40.3454],[26.5866,40.3486],[26.584,40.3562],[26.5894,40.4209],[26.5926,40.4275],[26.5993,40.4301],[26.6785,40.4301],[26.6858,40.4269],[26.6884,40.4193],[26.6831,40.3545],[26.6799,40.348],[26.6731,40.3454]]],[[[26.764,40.6153],[26.7672,40.6218],[26.774,40.6244],[26.8532,40.6244],[26.8605,40.6212],[26.8631,40.6136],[26.8577,40.5488],[26.8545,40.5423],[26.8477,40.5396],[26.7685,40.5396],[26.7611,40.5429],[26.7585,40.5505],[26.764,40.6153]]],[[[21.0704,40.7372],[21.0677,40.7448],[21.0715,40.7519],[21.1544,40.8166],[21.1606,40.8188],[21.2399,40.8188],[21.2464,40.8164],[21.322,40.7516],[21.3255,40.7445],[21.3228,40.7371],[21.3155,40.734],[21.0777,40.734],[21.0704,40.7372]]],[[[21.4778,40.7988],[21.3192,40.7988],[21.3119,40.8019],[21.3092,40.8093],[21.3129,40.8741],[21.316,40.8808],[21.3229,40.8836],[21.4815,40.8836],[21.4888,40.8804],[21.4915,40.873],[21.4877,40.8082],[21.4846,40.8015],[21.4778,40.7988]]],[[[24.6492,40.9391],[24.6524,40.9457],[24.6592,40.9484],[24.8179,40.9484],[24.8252,40.9452],[24.8279,40.9376],[24.823,40.8728],[24.8198,40.8662],[24.813,40.8636],[24.6544,40.8636],[24.647,40.8668],[24.6444,40.8743],[24.6492,40.9391]]],[[[21.7172,41.0038],[21.7203,41.0105],[21.7271,41.0132],[21.8065,41.0132],[21.8138,41.01],[21.8165,41.0026],[21.8126,40.9378],[21.8095,40.9311],[21.8026,40.9284],[21.7233,40.9284],[21.716,40.9315],[21.7133,40.939],[21.7172,41.0038]]],[[[19.8985,42.4862],[19.8184,42.4862],[19.8112,42.4893],[19.8085,42.4967],[19.8119,42.5617],[19.815,42.5684],[19.8219,42.5712],[19.9019,42.5712],[19.9092,42.5681],[19.9119,42.5607],[19.9085,42.4957],[19.9054,42.4889],[19.8985,42.4862]]],[[[17.5469,45.9558],[17.55,45.9626],[17.5569,45.9654],[17.6386,45.9654],[17.6458,45.9623],[17.6486,45.955],[17.6458,45.8894],[17.6428,45.8826],[17.6359,45.8798],[17.5542,45.8798],[17.547,45.8829],[17.5442,45.8902],[17.5469,45.9558]]],[[[16.5257,46.5465],[16.523,46.539],[16.5158,46.5359],[16.2698,46.5359],[16.2625,46.5391],[16.2599,46.5467],[16.2637,46.5537],[16.3479,46.6194],[16.3541,46.6215],[16.4361,46.6215],[16.4424,46.6192],[16.5221,46.5536],[16.5257,46.5465]]],[[[16.4449,47.0646],[16.4421,47.0719],[16.4444,47.1377],[16.4468,47.2035],[16.4498,47.2104],[16.4567,47.2132],[16.5391,47.2132],[16.5463,47.2101],[16.549,47.2028],[16.5467,47.137],[16.5443,47.0712],[16.5413,47.0644],[16.5343,47.0616],[16.4521,47.0616],[16.4449,47.0646]]],[[[16.4632,47.6645],[16.4663,47.6713],[16.4732,47.6741],[16.5558,47.6741],[16.563,47.671],[16.5657,47.6637],[16.5633,47.5978],[16.5603,47.591],[16.5533,47.5882],[16.4708,47.5882],[16.4636,47.5913],[16.4608,47.5986],[16.4632,47.6645]]],[[[16.4756,47.72],[16.4684,47.7231],[16.4656,47.7304],[16.468,47.7963],[16.471,47.8031],[16.478,47.8059],[16.5606,47.8059],[16.5678,47.8029],[16.5706,47.7956],[16.5682,47.7296],[16.5651,47.7228],[16.5582,47.72],[16.4756,47.72]]],[[[20.9487,49.317],[20.9534,49.3833],[20.9565,49.3899],[20.9634,49.3926],[21.0468,49.3926],[21.0542,49.3894],[21.0568,49.3819],[21.0521,49.3156],[21.049,49.309],[21.0422,49.3063],[20.9587,49.3063],[20.9514,49.3095],[20.9487,49.317]]],[[[21.1303,49.3726],[21.1229,49.3759],[21.1204,49.3835],[21.1243,49.3906],[21.2126,49.4569],[21.2186,49.4589],[21.3021,49.4589],[21.3059,49.4582],[21.4681,49.3918],[21.4731,49.3873],[21.4741,49.3807],[21.4707,49.3749],[21.4643,49.3726],[21.1303,49.3726]]],[[[27.7999,57.9746],[27.8033,57.9807],[27.8098,57.9831],[27.8992,57.9831],[27.9069,57.9795],[27.9091,57.9715],[27.8998,57.9138],[27.969,57.9138],[27.9788,57.9747],[27.99,58.0439],[27.9994,58.1016],[27.9216,58.1016],[27.914,58.1052],[27.9118,58.1132],[27.923,58.1826],[27.9324,58.2404],[27.7733,58.2404],[27.7635,58.1794],[27.7601,58.1734],[27.7537,58.171],[27.6641,58.171],[27.6564,58.1745],[27.6542,58.1826],[27.6653,58.2519],[27.6687,58.258],[27.6752,58.2604],[27.7563,58.2604],[27.7661,58.3214],[27.7695,58.3274],[27.776,58.3298],[27.9554,58.3298],[27.9631,58.3262],[27.9653,58.3182],[27.9559,58.2604],[28.0338,58.2604],[28.0414,58.2568],[28.0437,58.2488],[28.0323,58.1794],[28.0229,58.1216],[28.1007,58.1216],[28.1083,58.1181],[28.1106,58.11],[28.0655,57.833],[28.0605,57.8259],[28.0518,57.8253],[27.8861,57.8938],[27.7987,57.8938],[27.7911,57.8973],[27.7888,57.9054],[27.7999,57.9746]]],[[[27.5401,58.5382],[27.7114,58.5382],[27.7213,58.5993],[27.7326,58.6689],[27.7439,58.7385],[27.7552,58.8081],[27.7666,58.8777],[27.778,58.9474],[27.7876,59.0055],[27.7091,59.0055],[27.7014,59.0091],[27.6992,59.0171],[27.7106,59.0869],[27.7202,59.1451],[27.3788,59.1451],[27.369,59.0837],[27.3485,58.9558],[27.427,58.9558],[27.4346,58.9523],[27.4369,58.9442],[27.4257,58.8745],[27.4223,58.8685],[27.4158,58.8661],[27.3256,58.8661],[27.318,58.8696],[27.3157,58.8777],[27.325,58.9358],[27.2465,58.9358],[27.2389,58.9393],[27.2366,58.9474],[27.27,59.1566],[27.2734,59.1627],[27.2799,59.1651],[27.3672,59.1651],[27.4664,59.2331],[27.472,59.2349],[27.5625,59.2349],[27.5663,59.2341],[27.7339,59.1651],[27.8224,59.1651],[27.83,59.1615],[27.8322,59.1534],[27.8207,59.0837],[27.8111,59.0255],[27.8896,59.0255],[27.8973,59.022],[27.8995,59.0139],[27.8196,58.5266],[27.8162,58.5205],[27.8098,58.5182],[27.7284,58.5182],[27.7185,58.4571],[27.7151,58.4511],[27.7087,58.4487],[27.529,58.4487],[27.5214,58.4522],[27.5191,58.4603],[27.5302,58.5297],[27.5336,58.5358],[27.5401,58.5382]]],[[[18.3488,59.4442],[18.6264,59.5142],[18.6353,59.5121],[18.6388,59.5037],[18.6332,59.4337],[18.6275,59.3638],[18.6219,59.2939],[18.6188,59.2874],[18.612,59.2847],[18.3404,59.2847],[18.3331,59.2879],[18.3304,59.2955],[18.3413,59.4353],[18.3436,59.441],[18.3488,59.4442]]],[[[22.8603,60.005],[23.0425,60.005],[23.05,60.0017],[23.0524,59.9938],[23.0266,59.7834],[23.0233,59.7771],[23.0167,59.7746],[22.8348,59.7746],[22.8273,59.778],[22.8248,59.7858],[22.8503,59.9962],[22.8536,60.0025],[22.8603,60.005]]],[[[24.9687,65.0026],[24.9654,64.9965],[24.9589,64.9942],[24.7673,64.9942],[24.7597,64.9976],[24.7574,65.0057],[24.7803,65.152],[24.7837,65.158],[24.7902,65.1604],[24.982,65.1604],[24.9896,65.1569],[24.9919,65.1489],[24.9687,65.0026]]],[[[21.7128,70.3345],[21.7162,70.3406],[21.7227,70.343],[21.8158,70.343],[21.8259,70.4118],[21.8293,70.4179],[21.8358,70.4203],[22.0393,70.4203],[22.0469,70.4168],[22.0492,70.4088],[22.0146,70.1772],[22.0121,70.172],[22.0071,70.169],[21.6915,70.0919],[21.6824,70.0942],[21.6792,70.1031],[21.7128,70.3345]]],[[[29.0461,41.067],[29.0397,41.0022],[29.0365,40.9958],[29.0298,40.9932],[28.9504,40.9932],[28.943,40.9965],[28.9404,41.0042],[28.9468,41.069],[28.95,41.0754],[28.9567,41.078],[29.0362,41.078],[29.0436,41.0747],[29.0461,41.067]]],[[[30.4738,59.7746],[30.4661,59.7782],[30.464,59.7865],[30.4752,59.8447],[30.3963,59.8447],[30.3886,59.8483],[30.3865,59.8566],[30.4384,60.1255],[30.3593,60.1255],[30.3516,60.1291],[30.3495,60.1374],[30.3631,60.2077],[30.3744,60.2661],[30.2951,60.2661],[30.2874,60.2697],[30.2853,60.278],[30.3239,60.4773],[30.2445,60.4773],[30.2368,60.4809],[30.2347,60.4892],[30.2735,60.6887],[30.1939,60.6887],[30.1862,60.6924],[30.1841,60.7006],[30.1978,60.7712],[30.2092,60.8299],[30.1295,60.8299],[30.1218,60.8335],[30.1197,60.8418],[30.1311,60.9005],[30.0513,60.9005],[30.0436,60.9042],[30.0415,60.9124],[30.0529,60.9712],[29.973,60.9712],[29.9653,60.9748],[29.9632,60.9831],[29.9746,61.0419],[29.8946,61.0419],[29.8869,61.0456],[29.8848,61.0538],[29.8962,61.1127],[29.8162,61.1127],[29.8085,61.1163],[29.8064,61.1246],[29.82,61.1953],[29.8337,61.2662],[29.8371,61.272],[29.8435,61.2743],[29.9275,61.2743],[29.9397,61.337],[29.9431,61.3429],[29.9495,61.3451],[30.1259,61.3451],[30.1382,61.408],[30.1417,61.4138],[30.148,61.416],[30.2322,61.416],[30.2446,61.4789],[30.2481,61.4847],[30.2544,61.487],[30.5235,61.487],[30.5362,61.5499],[30.5397,61.5557],[30.546,61.558],[30.6303,61.558],[30.6431,61.6209],[30.6465,61.6267],[30.6529,61.629],[30.9305,61.629],[30.9372,61.6264],[30.9405,61.6202],[30.9387,61.6133],[30.9329,61.6092],[30.647,61.5397],[30.6339,61.475],[30.6305,61.4692],[30.6241,61.467],[30.5329,61.467],[30.249,61.3978],[30.2362,61.3332],[30.2327,61.3274],[30.2264,61.3251],[30.1423,61.3251],[30.13,61.2624],[30.1265,61.2566],[30.1202,61.2543],[29.944,61.2543],[29.9318,61.1916],[29.9204,61.1327],[30.0004,61.1327],[30.0081,61.129],[30.0102,61.1208],[29.9988,61.0619],[30.0787,61.0619],[30.0864,61.0583],[30.0885,61.05],[30.0771,60.9912],[30.157,60.9912],[30.1647,60.9876],[30.1668,60.9793],[30.1553,60.9205],[30.2351,60.9205],[30.2428,60.9169],[30.2449,60.9086],[30.2335,60.8499],[30.3132,60.8499],[30.3209,60.8463],[30.323,60.838],[30.3092,60.7674],[30.2978,60.7087],[30.3773,60.7087],[30.3851,60.7051],[30.3872,60.6968],[30.3482,60.4973],[30.4276,60.4973],[30.4353,60.4936],[30.4374,60.4853],[30.3986,60.2861],[30.4779,60.2861],[30.4856,60.2825],[30.4877,60.2742],[30.474,60.2039],[30.4627,60.1455],[30.5418,60.1455],[30.5495,60.1419],[30.5516,60.1336],[30.4994,59.8647],[30.5783,59.8647],[30.5821,59.8639],[30.7504,59.7938],[30.7563,59.7872],[30.7545,59.7785],[30.7466,59.7746],[30.4738,59.7746]]],[[[30.7815,60.0028],[30.7878,60.005],[30.8707,60.005],[30.9109,60.2077],[30.9143,60.2135],[30.9207,60.2158],[31.0038,60.2158],[31.0162,60.2781],[31.0197,60.2838],[31.0261,60.2861],[31.1092,60.2861],[31.1218,60.3484],[31.1252,60.3542],[31.1316,60.3565],[31.3144,60.3565],[31.3222,60.3528],[31.3242,60.3445],[31.3124,60.2861],[31.5742,60.2861],[31.5809,60.2836],[31.5842,60.2773],[31.5825,60.2704],[31.5766,60.2664],[31.2883,60.1961],[31.2817,60.1967],[31.277,60.2013],[31.2761,60.2078],[31.2879,60.2661],[31.1256,60.2661],[31.1131,60.2038],[31.1096,60.198],[31.1033,60.1958],[31.0202,60.1958],[30.9799,59.9931],[30.9764,59.9873],[30.9701,59.985],[30.8872,59.985],[30.8749,59.9229],[30.8611,59.8528],[30.8577,59.847],[30.8513,59.8447],[30.7603,59.8447],[30.7526,59.8484],[30.7505,59.8566],[30.7642,59.9268],[30.778,59.997],[30.7815,60.0028]]],[[[29.1476,59.985],[29.14,59.9886],[29.1378,59.9968],[29.1505,60.067],[29.154,60.0729],[29.1604,60.0753],[29.2515,60.0753],[29.2592,60.0717],[29.2614,60.0635],[29.2486,59.9932],[29.2452,59.9874],[29.2388,59.985],[29.1476,59.985]]],[[[29.2871,60.204],[29.2742,60.1337],[29.2708,60.1278],[29.2644,60.1255],[29.1731,60.1255],[29.1654,60.1291],[29.1633,60.1373],[29.1761,60.2076],[29.1795,60.2135],[29.1859,60.2158],[29.2772,60.2158],[29.2849,60.2122],[29.2871,60.204]]],[[[31.55,60.2078],[31.5535,60.2135],[31.5598,60.2158],[31.7343,60.2158],[31.7764,60.4189],[31.7799,60.4246],[31.7862,60.4268],[31.8695,60.4268],[31.9122,60.6303],[31.9157,60.636],[31.922,60.6382],[32.0056,60.6382],[32.0462,60.8299],[31.8748,60.8299],[31.867,60.8336],[31.865,60.842],[31.8774,60.9005],[31.7978,60.9005],[31.79,60.9042],[31.788,60.9126],[31.8004,60.9712],[31.7207,60.9712],[31.7129,60.9749],[31.7109,60.9833],[31.7258,61.054],[31.7382,61.1127],[31.6584,61.1127],[31.6506,61.1164],[31.6486,61.1247],[31.661,61.1835],[31.4889,61.1835],[31.4812,61.1872],[31.4792,61.1955],[31.4914,61.2543],[31.3193,61.2543],[31.3115,61.258],[31.3095,61.2663],[31.3217,61.3251],[31.1494,61.3251],[31.1416,61.3288],[31.1396,61.3372],[31.1518,61.396],[30.9793,61.396],[30.9716,61.3997],[30.9695,61.408],[30.9816,61.467],[30.9014,61.467],[30.8937,61.4707],[30.8916,61.479],[30.9062,61.55],[30.9096,61.5557],[30.916,61.558],[31.0085,61.558],[31.0162,61.5543],[31.0182,61.5459],[31.0061,61.487],[31.1787,61.487],[31.1865,61.4833],[31.1885,61.4749],[31.1763,61.416],[31.3488,61.416],[31.3565,61.4123],[31.3586,61.404],[31.3463,61.3451],[31.5186,61.3451],[31.5264,61.3414],[31.5284,61.3331],[31.5161,61.2743],[31.6882,61.2743],[31.696,61.2706],[31.698,61.2622],[31.6856,61.2035],[31.7655,61.2035],[31.7732,61.1998],[31.7752,61.1914],[31.7628,61.1327],[31.8426,61.1327],[31.8504,61.129],[31.8524,61.1206],[31.8374,61.0499],[31.825,60.9912],[31.9047,60.9912],[31.9125,60.9875],[31.9145,60.9791],[31.9021,60.9205],[32.0736,60.9205],[32.0813,60.9168],[32.0833,60.9085],[32.0709,60.8499],[32.1504,60.8499],[32.1582,60.8462],[32.1602,60.8378],[32.1151,60.6261],[32.1116,60.6204],[32.1053,60.6182],[32.0218,60.6182],[31.9789,60.4148],[31.9755,60.4091],[31.9692,60.4068],[31.8858,60.4068],[31.8435,60.2037],[31.84,60.198],[31.8337,60.1958],[31.7506,60.1958],[31.7377,60.1335],[31.7342,60.1277],[31.7279,60.1255],[31.5454,60.1255],[31.5377,60.1292],[31.5356,60.1375],[31.55,60.2078]]],[[[34.3176,31.3996],[34.3144,31.3931],[34.3076,31.3905],[34.2314,31.3905],[34.2241,31.3937],[34.2215,31.4013],[34.2267,31.4655],[34.2299,31.4721],[34.2366,31.4747],[34.3128,31.4747],[34.3202,31.4715],[34.3228,31.4639],[34.3176,31.3996]]],[[[34.3907,46.0109],[34.2273,46.0109],[34.2205,46.0136],[34.2173,46.0201],[34.2193,46.027],[34.3199,46.1582],[34.3274,46.1621],[34.3353,46.1588],[34.3377,46.1507],[34.3291,46.0903],[34.3974,46.0283],[34.4007,46.0213],[34.3979,46.014],[34.3907,46.0109]]],[[[33.5828,46.0765],[33.5752,46.0799],[33.5729,46.0879],[33.5912,46.2191],[33.5945,46.2252],[33.6011,46.2277],[33.6829,46.2277],[33.6919,46.222],[33.7552,46.0909],[33.756,46.0843],[33.7525,46.0787],[33.7462,46.0765],[33.5828,46.0765]]],[[[34.8197,61.6091],[34.8133,61.6101],[34.8088,61.6148],[34.8082,61.6213],[34.8256,61.6924],[34.8291,61.6979],[34.8353,61.7],[35.2058,61.7],[35.2125,61.6974],[35.2157,61.6909],[35.2137,61.684],[35.2076,61.6802],[34.8197,61.6091]]],[[[34.8626,61.7623],[34.8608,61.7554],[34.855,61.7514],[34.5597,61.6803],[34.5531,61.681],[34.5484,61.6857],[34.5477,61.6924],[34.5649,61.7635],[34.5684,61.769],[34.5746,61.7711],[34.8526,61.7711],[34.8593,61.7686],[34.8626,61.7623]]],[[[34.2922,61.7521],[34.2875,61.7568],[34.2868,61.7634],[34.3009,61.8222],[34.128,61.8222],[34.1202,61.826],[34.1183,61.8346],[34.1323,61.8934],[34.0522,61.8934],[34.0443,61.8972],[34.0425,61.9057],[34.0565,61.9646],[33.9762,61.9646],[33.9684,61.9684],[33.9665,61.9769],[33.9834,62.0482],[33.9975,62.1072],[33.9171,62.1072],[33.9092,62.111],[33.9074,62.1195],[33.9926,62.4765],[33.9961,62.4821],[34.0023,62.4842],[34.0878,62.4842],[34.1032,62.5481],[34.1205,62.6197],[34.124,62.6252],[34.1302,62.6273],[34.2158,62.6273],[34.2314,62.6913],[34.2349,62.6968],[34.2411,62.6989],[34.3346,62.6989],[34.3425,62.6951],[34.3444,62.6866],[34.3299,62.6273],[34.4106,62.6273],[34.4185,62.6235],[34.4204,62.6149],[34.4059,62.5557],[34.4865,62.5557],[34.4944,62.5519],[34.4963,62.5434],[34.4787,62.4718],[34.4643,62.4127],[34.5448,62.4127],[34.5527,62.4089],[34.5545,62.4003],[34.5401,62.3413],[34.7138,62.3413],[34.7216,62.3374],[34.7235,62.3289],[34.709,62.2699],[34.7893,62.2699],[34.7972,62.266],[34.799,62.2575],[34.7845,62.1985],[34.857,62.1985],[34.9947,62.7506],[34.9139,62.7506],[34.906,62.7545],[34.9042,62.763],[34.919,62.8223],[34.8382,62.8223],[34.8303,62.8262],[34.8285,62.8347],[34.8464,62.9065],[34.85,62.9119],[34.8561,62.9141],[34.9499,62.9141],[34.9578,62.9102],[34.9596,62.9016],[34.9447,62.8423],[35.0255,62.8423],[35.0334,62.8385],[35.0352,62.8299],[35.0203,62.7706],[35.1011,62.7706],[35.109,62.7668],[35.1108,62.7582],[34.9676,62.1861],[34.9641,62.1806],[34.9579,62.1785],[34.8727,62.1785],[34.8569,62.1148],[34.8534,62.1093],[34.8472,62.1072],[34.7542,62.1072],[34.7463,62.111],[34.7445,62.1195],[34.759,62.1785],[34.6787,62.1785],[34.6708,62.1823],[34.669,62.1909],[34.6834,62.2499],[34.5099,62.2499],[34.502,62.2537],[34.5002,62.2622],[34.5146,62.3213],[34.4341,62.3213],[34.4263,62.3251],[34.4244,62.3336],[34.4388,62.3927],[34.3583,62.3927],[34.3504,62.3965],[34.3486,62.4051],[34.366,62.4766],[34.3804,62.5357],[34.2997,62.5357],[34.2919,62.5396],[34.29,62.5481],[34.3044,62.6073],[34.2315,62.6073],[34.216,62.5434],[34.1987,62.4719],[34.1952,62.4664],[34.189,62.4642],[34.1035,62.4642],[34.0228,62.1272],[34.1031,62.1272],[34.111,62.1234],[34.1128,62.1148],[34.0958,62.0435],[34.0818,61.9846],[34.162,61.9846],[34.1698,61.9808],[34.1717,61.9723],[34.1577,61.9134],[34.3306,61.9134],[34.3385,61.9096],[34.3404,61.9011],[34.3262,61.8422],[34.5918,61.8422],[34.5984,61.8397],[34.6017,61.8334],[34.6,61.8265],[34.5941,61.8225],[34.2989,61.7514],[34.2922,61.7521]]],[[[35.1224,62.4642],[35.1145,62.4681],[35.1127,62.4767],[35.185,62.7631],[35.1885,62.7685],[35.1947,62.7706],[35.2805,62.7706],[35.2937,62.8223],[35.2129,62.8223],[35.205,62.8262],[35.2032,62.8348],[35.2183,62.8941],[35.1374,62.8941],[35.1295,62.8979],[35.1277,62.9065],[35.1428,62.9658],[34.968,62.9658],[34.9601,62.9697],[34.9583,62.9783],[34.9764,63.0501],[34.98,63.0556],[34.9861,63.0577],[35.1739,63.0577],[35.1818,63.0538],[35.1836,63.0452],[35.1685,62.9858],[35.2494,62.9858],[35.2573,62.982],[35.2591,62.9734],[35.244,62.9141],[35.3249,62.9141],[35.3328,62.9102],[35.3346,62.9016],[35.3194,62.8423],[35.4002,62.8423],[35.4081,62.8384],[35.4099,62.8298],[35.3916,62.7581],[35.3881,62.7527],[35.3819,62.7506],[35.2961,62.7506],[35.2286,62.4842],[35.3091,62.4842],[35.317,62.4804],[35.3188,62.4718],[35.3007,62.4003],[35.2859,62.3413],[35.3662,62.3413],[35.3741,62.3374],[35.3759,62.3288],[35.361,62.2699],[35.4414,62.2699],[35.4492,62.266],[35.451,62.2574],[35.4361,62.1985],[35.5164,62.1985],[35.5243,62.1946],[35.5261,62.186],[35.5112,62.1272],[35.6843,62.1272],[35.6922,62.1233],[35.694,62.1147],[35.6791,62.0559],[35.7591,62.0559],[35.767,62.052],[35.7688,62.0434],[35.7539,61.9846],[35.9268,61.9846],[35.9347,61.9807],[35.9364,61.9721],[35.9214,61.9134],[36.0013,61.9134],[36.0092,61.9095],[36.011,61.9009],[35.996,61.8422],[36.0758,61.8422],[36.0837,61.8384],[36.0855,61.8298],[36.0705,61.7711],[36.1503,61.7711],[36.1582,61.7672],[36.1599,61.7586],[36.1417,61.6875],[36.1266,61.629],[36.2063,61.629],[36.2142,61.6251],[36.216,61.6165],[36.1978,61.5455],[36.1796,61.4745],[36.176,61.4691],[36.1699,61.467],[36.0852,61.467],[36.0691,61.4036],[36.0542,61.3451],[36.1337,61.3451],[36.1416,61.3413],[36.1434,61.3327],[36.1253,61.2618],[36.1073,61.191],[36.1038,61.1856],[36.0976,61.1835],[36.0133,61.1835],[35.9973,61.1202],[35.9937,61.1148],[35.9876,61.1127],[35.8112,61.1127],[35.7954,61.0495],[35.7918,61.044],[35.7857,61.0419],[35.7015,61.0419],[35.6858,60.9788],[35.6822,60.9733],[35.6761,60.9712],[35.4999,60.9712],[35.4844,60.9081],[35.4808,60.9027],[35.4747,60.9005],[35.2908,60.9005],[35.283,60.9044],[35.2811,60.9129],[35.2954,60.9712],[35.2161,60.9712],[35.2083,60.975],[35.2064,60.9836],[35.2237,61.0543],[35.2272,61.0598],[35.2334,61.0619],[35.3176,61.0619],[35.3331,61.1251],[35.3505,61.1958],[35.3541,61.2013],[35.3602,61.2035],[35.4446,61.2035],[35.4603,61.2667],[35.4748,61.3251],[35.3953,61.3251],[35.3874,61.329],[35.3855,61.3375],[35.4031,61.4084],[35.4177,61.467],[35.338,61.467],[35.3301,61.4708],[35.3283,61.4794],[35.3428,61.538],[35.1706,61.538],[35.1628,61.5418],[35.1609,61.5503],[35.1785,61.6214],[35.182,61.6268],[35.1882,61.629],[35.3733,61.629],[35.3812,61.6251],[35.383,61.6165],[35.3684,61.558],[35.4481,61.558],[35.456,61.5541],[35.4578,61.5455],[35.4432,61.487],[35.5229,61.487],[35.5308,61.4831],[35.5326,61.4746],[35.5149,61.4036],[35.5003,61.3451],[35.5799,61.3451],[35.5877,61.3413],[35.5896,61.3327],[35.5719,61.2619],[35.5543,61.191],[35.5508,61.1856],[35.5446,61.1835],[35.4603,61.1835],[35.4446,61.1203],[35.4272,61.0495],[35.4237,61.0441],[35.4175,61.0419],[35.3333,61.0419],[35.3209,60.9912],[35.4843,60.9912],[35.4998,61.0543],[35.5034,61.0598],[35.5095,61.0619],[35.6858,61.0619],[35.7016,61.1251],[35.7051,61.1306],[35.7113,61.1327],[35.7956,61.1327],[35.8114,61.1959],[35.815,61.2013],[35.8211,61.2035],[35.9977,61.2035],[36.0137,61.2667],[36.0285,61.3251],[35.9491,61.3251],[35.9412,61.329],[35.9394,61.3376],[35.9573,61.4085],[35.9753,61.4794],[35.9789,61.4849],[35.985,61.487],[36.0697,61.487],[36.0859,61.5504],[36.1009,61.609],[36.0212,61.609],[36.0133,61.6128],[36.0115,61.6214],[36.0297,61.6925],[36.0447,61.7511],[35.9649,61.7511],[35.957,61.755],[35.9552,61.7636],[35.9702,61.8222],[35.8903,61.8222],[35.8824,61.8261],[35.8806,61.8347],[35.8956,61.8934],[35.7229,61.8934],[35.715,61.8973],[35.7132,61.9059],[35.7281,61.9646],[35.6481,61.9646],[35.6402,61.9685],[35.6384,61.9771],[35.6533,62.0359],[35.4803,62.0359],[35.4724,62.0397],[35.4706,62.0483],[35.4855,62.1072],[35.4053,62.1072],[35.3974,62.111],[35.3956,62.1196],[35.4105,62.1785],[35.3302,62.1785],[35.3223,62.1823],[35.3205,62.1909],[35.3354,62.2499],[35.2551,62.2499],[35.2472,62.2537],[35.2454,62.2623],[35.2602,62.3213],[35.1798,62.3213],[35.1719,62.3251],[35.1701,62.3337],[35.1881,62.4052],[35.2029,62.4642],[35.1224,62.4642]]],[[[34.5772,62.8943],[34.5706,62.895],[34.5659,62.8998],[34.5652,62.9065],[34.583,62.9783],[34.5866,62.9837],[34.5927,62.9858],[34.8742,62.9858],[34.8808,62.9833],[34.8841,62.977],[34.8824,62.9701],[34.8765,62.9661],[34.5772,62.8943]]],[[[34.3016,62.9782],[34.3162,63.0377],[34.1412,63.0377],[34.1333,63.0415],[34.1315,63.05],[34.146,63.1095],[34.0648,63.1095],[34.057,63.1134],[34.0551,63.1219],[34.0727,63.1938],[34.0903,63.2658],[34.0938,63.2713],[34.1,63.2734],[34.1863,63.2734],[34.2021,63.3378],[34.2057,63.3433],[34.2118,63.3454],[34.306,63.3454],[34.3139,63.3416],[34.3157,63.333],[34.301,63.2734],[34.4764,63.2734],[34.4842,63.2696],[34.4861,63.261],[34.4713,63.2015],[34.7405,63.2015],[34.7472,63.1989],[34.7505,63.1926],[34.7487,63.1857],[34.7429,63.1817],[34.443,63.1098],[34.4363,63.1105],[34.4316,63.1153],[34.4309,63.122],[34.4457,63.1815],[34.2704,63.1815],[34.2626,63.1853],[34.2607,63.1939],[34.2754,63.2534],[34.2019,63.2534],[34.1861,63.1891],[34.1715,63.1295],[34.3467,63.1295],[34.3545,63.1257],[34.3564,63.1172],[34.3417,63.0577],[34.6106,63.0577],[34.6172,63.0551],[34.6205,63.0488],[34.6188,63.042],[34.6129,63.0379],[34.3136,62.9661],[34.307,62.9668],[34.3022,62.9716],[34.3016,62.9782]]],[[[34.7068,63.0379],[34.7002,63.0387],[34.6954,63.0434],[34.6948,63.0501],[34.7128,63.122],[34.7163,63.1274],[34.7225,63.1295],[35.0043,63.1295],[35.011,63.127],[35.0143,63.1207],[35.0125,63.1138],[35.0067,63.1098],[34.7068,63.0379]]],[[[48.1996,30.4264],[48.1921,30.4298],[48.1897,30.4376],[48.1975,30.5019],[48.2008,30.5082],[48.2075,30.5107],[48.2834,30.5107],[48.2909,30.5073],[48.2933,30.4995],[48.2855,30.4352],[48.2822,30.4289],[48.2755,30.4264],[48.1996,30.4264]]],[[[47.645,30.9518],[47.653,31.0161],[47.6563,31.0223],[47.6629,31.0248],[47.815,31.0248],[47.8225,31.0215],[47.8249,31.0136],[47.8169,30.9493],[47.8136,30.9431],[47.807,30.9406],[47.6549,30.9406],[47.6474,30.944],[47.645,30.9518]]],[[[47.7858,31.466],[47.794,31.5303],[47.8023,31.5945],[47.8056,31.6008],[47.8122,31.6033],[47.8796,31.6033],[47.8868,31.6588],[47.8951,31.7231],[47.902,31.7761],[47.8372,31.7761],[47.8296,31.7795],[47.8272,31.7874],[47.8356,31.8516],[47.844,31.9159],[47.8474,31.9221],[47.854,31.9246],[47.9302,31.9246],[47.9378,31.9212],[47.9402,31.9133],[47.9317,31.849],[47.9248,31.7961],[47.9897,31.7961],[47.9972,31.7927],[47.9996,31.7848],[47.9912,31.7205],[47.9829,31.6562],[47.9745,31.592],[47.9712,31.5857],[47.9646,31.5833],[47.8972,31.5833],[47.89,31.5277],[47.8818,31.4634],[47.8736,31.3992],[47.8703,31.3929],[47.8637,31.3905],[47.7875,31.3905],[47.78,31.3938],[47.7776,31.4017],[47.7858,31.466]]],[[[35.7238,32.8797],[35.727,32.8861],[35.7338,32.8888],[35.8012,32.8888],[35.8294,33.1902],[35.7637,33.1902],[35.7564,33.1935],[35.7538,33.2011],[35.7598,33.2654],[35.7659,33.3297],[35.7691,33.3362],[35.7759,33.3388],[35.8526,33.3388],[35.86,33.3355],[35.8625,33.3278],[35.8564,33.2635],[35.8514,33.2102],[35.9171,33.2102],[35.9245,33.2069],[35.927,33.1993],[35.9029,32.9421],[35.8969,32.8778],[35.8936,32.8714],[35.8869,32.8688],[35.8195,32.8688],[35.8144,32.8136],[35.8084,32.7493],[35.8052,32.7428],[35.7985,32.7402],[35.7219,32.7402],[35.7145,32.7435],[35.712,32.7511],[35.7179,32.8154],[35.7238,32.8797]]],[[[39.5733,33.78],[39.5765,33.7863],[39.5832,33.7889],[39.66,33.7889],[39.6675,33.7855],[39.67,33.7777],[39.6628,33.7134],[39.6596,33.7071],[39.6529,33.7046],[39.5761,33.7046],[39.5686,33.7079],[39.5661,33.7157],[39.5733,33.78]]],[[[40.4728,34.1547],[40.4653,34.1581],[40.4628,34.1659],[40.4703,34.2302],[40.4736,34.2365],[40.4803,34.239],[40.5572,34.239],[40.5647,34.2357],[40.5672,34.2279],[40.5597,34.1635],[40.5564,34.1572],[40.5497,34.1547],[40.4728,34.1547]]],[[[41.1795,35.0022],[41.1874,35.0665],[41.1907,35.0728],[41.1973,35.0753],[41.2745,35.0753],[41.282,35.0719],[41.2845,35.0641],[41.2765,34.9997],[41.2732,34.9935],[41.2666,34.991],[41.1894,34.991],[41.1819,34.9943],[41.1795,35.0022]]],[[[48.7091,38.5469],[48.7125,38.5528],[48.7189,38.5551],[48.7974,38.5551],[48.805,38.5515],[48.8072,38.5434],[48.7956,38.4788],[48.7922,38.4729],[48.7858,38.4706],[48.7074,38.4706],[48.6997,38.4742],[48.6976,38.4823],[48.7091,38.5469]]],[[[44.5868,39.6336],[44.5791,39.6371],[44.5769,39.6453],[44.5879,39.7099],[44.5913,39.7159],[44.5977,39.7183],[44.7554,39.7183],[44.763,39.7147],[44.7653,39.7066],[44.7543,39.6419],[44.7509,39.636],[44.7444,39.6336],[44.5868,39.6336]]],[[[48.3585,41.9664],[48.2787,41.9664],[48.271,41.9701],[48.269,41.9784],[48.2825,42.0434],[48.286,42.0491],[48.2923,42.0513],[48.3721,42.0513],[48.3799,42.0476],[48.3819,42.0393],[48.3683,41.9743],[48.3648,41.9686],[48.3585,41.9664]]]]}}
