{"type":"Feature","properties":{"name":"Sultanate of Sumbawa","source":"Henri Chambert-Loir, Syair Kerajaan Bima (1982), p. 51, as reproduced in Bernice de Jong Boers, 'Mount Tambora in 1815', Indonesia 60 (1995)","method":"Natural Earth's Sumbawa split by the map's boundaries, georeferenced on eleven coastal control points (residuals under 8 km); the Tambora-Sanggar line runs east of the summit, as the map draws it."},"geometry":{"type":"MultiPolygon","coordinates":[[[[117.9444,-8.9089],[117.8905,-8.9368],[117.8801,-8.9283],[117.8729,-8.9278],[117.8662,-8.9309],[117.8567,-8.933],[117.853,-8.9291],[117.845,-8.9109],[117.8394,-8.9057],[117.8255,-8.9055],[117.8176,-8.9112],[117.812,-8.9192],[117.8052,-8.9262],[117.7956,-8.9308],[117.7879,-8.9328],[117.7744,-8.933],[117.7676,-8.9312],[117.7572,-8.9265],[117.7478,-8.921],[117.7378,-8.9098],[117.7251,-8.912],[117.7129,-8.9174],[117.709,-8.92],[117.6677,-8.9371],[117.6129,-8.9695],[117.5581,-9.0019],[117.5181,-9.0178],[117.4739,-9.03],[117.3889,-9.0537],[117.3341,-9.0594],[117.3005,-9.0471],[117.2739,-9.0402],[117.2261,-9.0238],[117.1924,-9.0237],[117.1714,-9.032],[117.1535,-9.0612],[117.141,-9.0764],[117.1268,-9.0912],[117.0713,-9.1017],[117.0097,-9.1073],[116.9914,-9.0851],[116.9704,-9.0713],[116.9492,-9.0602],[116.9282,-9.0639],[116.9064,-9.0634],[116.8503,-9.0453],[116.8283,-9.0429],[116.8062,-9.0363],[116.7739,-9.0128],[116.763,-9.0156],[116.7586,-9.0046],[116.7454,-8.9831],[116.7285,-8.9631],[116.7312,-8.9465],[116.7479,-8.9229],[116.7409,-8.9051],[116.7366,-8.883],[116.7352,-8.8734],[116.7588,-8.8499],[116.7769,-8.8263],[116.8171,-8.8181],[116.8245,-8.799],[116.8213,-8.7873],[116.8145,-8.78],[116.8076,-8.7755],[116.8045,-8.7717],[116.8025,-8.7646],[116.7974,-8.7546],[116.7907,-8.7454],[116.7711,-8.7478],[116.7641,-8.7382],[116.7723,-8.7051],[116.7723,-8.6803],[116.7485,-8.6665],[116.7901,-8.5837],[116.832,-8.5748],[116.8394,-8.5549],[116.8381,-8.5079],[116.8573,-8.524],[116.8659,-8.5276],[116.8796,-8.5283],[116.8904,-8.5263],[116.9845,-8.4958],[117.032,-8.4684],[117.0902,-8.4252],[117.1261,-8.4055],[117.1177,-8.3835],[117.1405,-8.372],[117.1735,-8.3652],[117.1951,-8.3576],[117.2156,-8.3849],[117.229,-8.3881],[117.262,-8.3903],[117.2738,-8.3952],[117.2874,-8.405],[117.3161,-8.4197],[117.3532,-8.4467],[117.4339,-8.4811],[117.4277,-8.4653],[117.4312,-8.4533],[117.4378,-8.4423],[117.4414,-8.4294],[117.4427,-8.4107],[117.4473,-8.4086],[117.4557,-8.4142],[117.4688,-8.4191],[117.5197,-8.4187],[117.5441,-8.4142],[117.5581,-8.4055],[117.5679,-8.4223],[117.5769,-8.4871],[117.5923,-8.5147],[117.5982,-8.4939],[117.5999,-8.4461],[117.6128,-8.4328],[117.6233,-8.4384],[117.6291,-8.4575],[117.6355,-8.525],[117.6397,-8.5406],[117.6491,-8.5519],[117.6987,-8.5768],[117.7111,-8.5739],[117.7209,-8.5685],[117.7307,-8.5654],[117.7438,-8.5693],[117.7394,-8.5763],[117.7363,-8.5829],[117.7476,-8.5857],[117.7562,-8.5895],[117.7637,-8.5953],[117.7717,-8.6041],[117.7689,-8.6071],[117.7647,-8.6142],[117.7647,-8.6213],[117.7744,-8.6246],[117.7821,-8.6253],[117.7863,-8.6277],[117.7887,-8.6319],[117.7915,-8.6381],[117.7808,-8.6376],[117.7715,-8.6386],[117.7637,-8.641],[117.7573,-8.6451],[117.7653,-8.6599],[117.7783,-8.696],[117.7879,-8.7102],[117.8052,-8.72],[117.8235,-8.7193],[117.8866,-8.6995],[117.8939,-8.7003],[117.9001,-8.7067],[117.9024,-8.7156],[117.9031,-8.7236],[117.9045,-8.727],[117.9168,-8.7273],[117.9343,-8.7298],[117.9529,-8.736],[117.9591,-8.7407],[117.96,-8.745],[118.0,-8.835],[118.0076,-8.869],[117.9984,-8.881],[117.9444,-8.9089]]],[[[117.4849,-8.3502],[117.4856,-8.343],[117.4959,-8.3298],[117.5112,-8.2955],[117.5108,-8.281],[117.4998,-8.2652],[117.4898,-8.2574],[117.4846,-8.2551],[117.4827,-8.2507],[117.4805,-8.2092],[117.4816,-8.195],[117.4868,-8.1829],[117.4939,-8.1762],[117.5484,-8.149],[117.5635,-8.1452],[117.6139,-8.1467],[117.6643,-8.1481],[117.6731,-8.1541],[117.6834,-8.1586],[117.6917,-8.1647],[117.6953,-8.1759],[117.6926,-8.1835],[117.6854,-8.1892],[117.6673,-8.1994],[117.6403,-8.2241],[117.6206,-8.2536],[117.5936,-8.3088],[117.5666,-8.3639],[117.5537,-8.379],[117.5339,-8.3849],[117.5261,-8.3818],[117.4925,-8.361],[117.4849,-8.3502]]]]}}
