{"type":"Feature","properties":{"name":"Kingdom of Sanggar","source":"Henri Chambert-Loir, Syair Kerajaan Bima (1982), p. 51, as reproduced in Bernice de Jong Boers, 'Mount Tambora in 1815', Indonesia 60 (1995)","method":"Natural Earth's Sumbawa split by the map's boundaries, georeferenced on eleven coastal control points (residuals under 8 km); the Tambora-Sanggar line runs east of the summit, as the map draws it."},"geometry":{"type":"MultiPolygon","coordinates":[[[[118.0715,-8.1054],[118.1152,-8.1139],[118.1497,-8.1345],[118.1682,-8.1726],[118.1727,-8.2131],[118.1773,-8.2327],[118.1851,-8.2409],[118.1891,-8.2482],[118.2229,-8.2888],[118.2439,-8.3287],[118.2536,-8.3403],[118.2595,-8.3429],[118.2642,-8.341],[118.2681,-8.3381],[118.2707,-8.3372],[118.304,-8.3683],[118.3123,-8.3713],[118.3247,-8.3683],[118.322,-8.372],[118.264,-8.444],[118.197,-8.411],[118.144,-8.378],[118.071,-8.338],[118.03,-8.31],[118.03,-8.104],[118.0715,-8.1054]]]]}}
