{"type":"Feature","properties":{"name":"Sultanate of Bima","source":"Henri Chambert-Loir, Syair Kerajaan Bima (1982), p. 51, as reproduced in Bernice de Jong Boers, 'Mount Tambora in 1815', Indonesia 60 (1995)","method":"Natural Earth's Sumbawa split by the map's boundaries, georeferenced on eleven coastal control points (residuals under 8 km); the Tambora-Sanggar line runs east of the summit, as the map draws it."},"geometry":{"type":"MultiPolygon","coordinates":[[[[119.1818,-8.7208],[119.1646,-8.7315],[119.1516,-8.7424],[119.1384,-8.7458],[119.1204,-8.7345],[119.1167,-8.7478],[119.11,-8.7536],[119.1006,-8.7521],[119.0897,-8.7443],[119.0779,-8.7394],[119.0654,-8.7411],[119.053,-8.7455],[118.9915,-8.7551],[118.9719,-8.7512],[118.946,-8.7306],[118.9236,-8.6985],[118.9155,-8.6922],[118.8984,-8.6884],[118.8919,-8.6935],[118.8885,-8.7033],[118.8809,-8.714],[118.8571,-8.7218],[118.8133,-8.7102],[118.7914,-8.7208],[118.7651,-8.7109],[118.7464,-8.7179],[118.7278,-8.7332],[118.702,-8.7481],[118.7119,-8.7548],[118.7266,-8.7698],[118.7362,-8.7747],[118.7466,-8.7763],[118.8257,-8.7765],[118.9072,-8.7897],[118.9269,-8.7966],[118.9354,-8.8061],[118.9378,-8.8123],[118.9475,-8.8254],[118.9497,-8.8337],[118.9446,-8.8415],[118.9325,-8.8464],[118.9081,-8.8505],[118.8968,-8.8498],[118.877,-8.8454],[118.8672,-8.8443],[118.8517,-8.8381],[118.846,-8.8368],[118.8467,-8.8391],[118.8423,-8.8439],[118.8356,-8.8484],[118.8293,-8.8505],[118.8176,-8.8435],[118.7774,-8.8116],[118.7573,-8.802],[118.714,-8.8],[118.669,-8.8069],[118.601,-8.8263],[118.533,-8.8456],[118.465,-8.865],[118.4572,-8.8633],[118.491,-8.74],[118.514,-8.644],[118.515,-8.491],[118.495,-8.348],[118.472,-8.2482],[118.4861,-8.2462],[118.5034,-8.2477],[118.5132,-8.2532],[118.5296,-8.2663],[118.541,-8.2688],[118.5823,-8.2688],[118.5902,-8.2707],[118.5964,-8.2747],[118.6017,-8.2791],[118.6065,-8.2819],[118.6394,-8.2863],[118.6475,-8.2888],[118.6637,-8.3058],[118.6958,-8.3713],[118.6891,-8.3879],[118.6847,-8.4127],[118.6815,-8.457],[118.6565,-8.5265],[118.6543,-8.5421],[118.6673,-8.5473],[118.6831,-8.5335],[118.6965,-8.5146],[118.702,-8.5045],[118.7043,-8.497],[118.7152,-8.4714],[118.7269,-8.4518],[118.7258,-8.442],[118.721,-8.4321],[118.7163,-8.4191],[118.717,-8.3796],[118.7315,-8.3493],[118.7539,-8.3264],[118.7778,-8.3093],[118.8127,-8.2956],[118.8592,-8.2888],[118.9081,-8.2888],[118.9497,-8.2956],[118.9725,-8.302],[118.9883,-8.309],[118.9983,-8.3212],[119.0044,-8.3434],[119.0073,-8.372],[119.0217,-8.4195],[119.0511,-8.4705],[119.0456,-8.509],[119.0305,-8.5478],[119.0384,-8.5829],[119.0383,-8.6077],[119.0415,-8.6298],[119.0523,-8.6457],[119.0757,-8.652],[119.0905,-8.6491],[119.1109,-8.6423],[119.1301,-8.6334],[119.1409,-8.6246],[119.1404,-8.6153],[119.1354,-8.6062],[119.134,-8.5994],[119.1546,-8.5944],[119.1597,-8.5881],[119.1614,-8.5784],[119.1614,-8.5659],[119.1673,-8.5597],[119.1809,-8.573],[119.1951,-8.594],[119.2036,-8.6109],[119.1992,-8.6124],[119.1931,-8.616],[119.1893,-8.6178],[119.1943,-8.6261],[119.1895,-8.6313],[119.1809,-8.6365],[119.175,-8.6451],[119.1741,-8.6599],[119.177,-8.6745],[119.1825,-8.6882],[119.1893,-8.7003],[119.181,-8.7034],[119.1777,-8.7068],[119.1782,-8.7121],[119.1818,-8.7208]]],[[[119.1375,-8.1906],[119.1272,-8.2205],[119.1165,-8.2356],[119.1004,-8.2516],[119.0788,-8.2621],[119.0515,-8.2614],[119.0228,-8.2343],[119.0203,-8.1897],[119.042,-8.1485],[119.0864,-8.1315],[119.113,-8.1467],[119.1315,-8.1663],[119.1375,-8.1906]]]]}}
