{"type":"Feature","properties":{"name":"Kingdom of Pekat","source":"Henri Chambert-Loir, Syair Kerajaan Bima (1982), p. 51, as reproduced in Bernice de Jong Boers, 'Mount Tambora in 1815', Indonesia 60 (1995)","method":"Natural Earth's Sumbawa split by the map's boundaries, georeferenced on eleven coastal control points (residuals under 8 km); the Tambora-Sanggar line runs east of the summit, as the map draws it."},"geometry":{"type":"MultiPolygon","coordinates":[[[[118.1489,-8.5121],[118.1336,-8.4867],[118.1267,-8.4867],[118.1172,-8.4965],[118.1033,-8.4884],[118.0755,-8.457],[118.0575,-8.4506],[118.0364,-8.4573],[118.0032,-8.4737],[117.9885,-8.47],[117.9702,-8.4614],[117.9549,-8.4513],[117.94,-8.4328],[117.8815,-8.3986],[117.8225,-8.3542],[117.8101,-8.34],[117.8015,-8.3275],[117.802,-8.327],[117.889,-8.285],[117.955,-8.281],[118.03,-8.31],[118.071,-8.338],[118.144,-8.378],[118.197,-8.411],[118.264,-8.444],[118.188,-8.513],[118.1725,-8.5322],[118.1489,-8.5121]]]]}}
