{"type":"Feature","properties":{"name":"Sultanate of Dompu","source":"Henri Chambert-Loir, Syair Kerajaan Bima (1982), p. 51, as reproduced in Bernice de Jong Boers, 'Mount Tambora in 1815', Indonesia 60 (1995)","method":"Natural Earth's Sumbawa split by the map's boundaries, georeferenced on eleven coastal control points (residuals under 8 km); the Tambora-Sanggar line runs east of the summit, as the map draws it."},"geometry":{"type":"MultiPolygon","coordinates":[[[[118.4142,-8.8536],[118.3874,-8.7958],[118.3911,-8.7702],[118.405,-8.7504],[118.4221,-8.7311],[118.4352,-8.7065],[118.4387,-8.69],[118.4397,-8.6746],[118.4383,-8.6598],[118.4352,-8.6451],[118.4286,-8.6298],[118.4204,-8.6157],[118.4146,-8.6005],[118.4147,-8.5829],[118.4004,-8.5961],[118.397,-8.6179],[118.4011,-8.6624],[118.3936,-8.6746],[118.3762,-8.6808],[118.3556,-8.685],[118.339,-8.6922],[118.3123,-8.727],[118.2993,-8.7579],[118.2949,-8.7652],[118.2866,-8.7704],[118.2749,-8.7721],[118.2163,-8.82],[118.1577,-8.8679],[118.1403,-8.8722],[118.1195,-8.863],[118.098,-8.8503],[118.0789,-8.8443],[118.0702,-8.8463],[118.0373,-8.858],[118.0386,-8.8561],[118.0352,-8.8531],[118.0296,-8.8508],[118.0242,-8.8505],[118.0168,-8.8626],[118.0085,-8.8678],[118.0076,-8.869],[118.0,-8.835],[117.96,-8.745],[117.9591,-8.7407],[117.969,-8.7481],[117.9886,-8.7324],[118.0303,-8.6882],[118.0479,-8.6791],[118.0486,-8.676],[118.0549,-8.6692],[118.0619,-8.6633],[118.0653,-8.6624],[118.0681,-8.6559],[118.075,-8.6537],[118.0838,-8.6533],[118.1228,-8.6458],[118.1577,-8.6451],[118.1658,-8.6472],[118.1838,-8.6565],[118.1919,-8.6588],[118.2461,-8.6572],[118.2656,-8.652],[118.2817,-8.6415],[118.2913,-8.6246],[118.2909,-8.6059],[118.2829,-8.588],[118.2695,-8.5745],[118.2536,-8.5693],[118.2503,-8.5645],[118.2419,-8.5551],[118.2332,-8.5485],[118.2292,-8.5525],[118.2271,-8.5584],[118.2223,-8.5649],[118.2092,-8.5768],[118.1929,-8.5495],[118.1725,-8.5322],[118.188,-8.513],[118.264,-8.444],[118.322,-8.372],[118.3247,-8.3683],[118.3278,-8.3676],[118.347,-8.3574],[118.3652,-8.3447],[118.3916,-8.3185],[118.3983,-8.309],[118.4011,-8.2992],[118.4064,-8.2956],[118.4181,-8.2901],[118.4299,-8.2825],[118.4436,-8.2579],[118.4634,-8.2494],[118.472,-8.2482],[118.495,-8.348],[118.515,-8.491],[118.514,-8.644],[118.491,-8.74],[118.4572,-8.8633],[118.4142,-8.8536]]]]}}
