{"type":"Feature","properties":{"name":"Kingdom of Tambora","source":"Henri Chambert-Loir, Syair Kerajaan Bima (1982), p. 51, as reproduced in Bernice de Jong Boers, 'Mount Tambora in 1815', Indonesia 60 (1995)","method":"Natural Earth's Sumbawa split by the map's boundaries, georeferenced on eleven coastal control points (residuals under 8 km); the Tambora-Sanggar line runs east of the summit, as the map draws it."},"geometry":{"type":"MultiPolygon","coordinates":[[[[117.7866,-8.3056],[117.7717,-8.2888],[117.7438,-8.2688],[117.7308,-8.2527],[117.7222,-8.2446],[117.7123,-8.2409],[117.7063,-8.2297],[117.7111,-8.2039],[117.7207,-8.1762],[117.7295,-8.1589],[117.741,-8.1479],[117.7497,-8.145],[117.7568,-8.1456],[117.7635,-8.1448],[117.7898,-8.1274],[117.7949,-8.1249],[117.8125,-8.1218],[117.8953,-8.09],[117.9178,-8.0859],[117.9588,-8.0833],[117.9656,-8.089],[117.9712,-8.1004],[117.9775,-8.1091],[117.9861,-8.1072],[117.9961,-8.1007],[118.0051,-8.1002],[118.0242,-8.1038],[118.03,-8.104],[118.03,-8.31],[117.955,-8.281],[117.889,-8.285],[117.802,-8.327],[117.8015,-8.3275],[117.7866,-8.3056]]]]}}
