{"type": "Feature", "properties": {"name": "Confederate States of America", "source": "Compromise of 1850 (Texas south of 36\u00b030' N and east of 103\u00b0 W, its line with New Mexico at 32\u00b0 N) and the Rio Grande, Texas's line with Mexico by the Treaty of Guadalupe Hidalgo", "method": "Texas's lines with New Mexico and the Indian Territory from the Compromise of 1850, the Rio Grande traced through El Paso, Presidio, Boquillas, Del Rio, Eagle Pass, Laredo, Rio Grande City, Reynosa and Brownsville, and the Red River line kept just south of the river, where Cliopatria's Confederate shape holds the land. A pocket draws only the stateless land inside it."}, "geometry": {"type": "Polygon", "coordinates": [[[-103.0, 36.5], [-103.0, 32.0], [-106.62, 32.0], [-106.49, 31.76], [-105.85, 31.29], [-105.0, 30.6], [-104.37, 29.56], [-103.3, 29.0], [-102.95, 29.18], [-102.4, 29.85], [-101.56, 29.81], [-100.9, 29.36], [-100.5, 28.71], [-99.5, 27.5], [-99.1, 26.45], [-98.8, 26.38], [-98.25, 26.07], [-97.5, 25.88], [-97.15, 25.96], [-97.15, 25.0], [-94.0, 25.0], [-94.0, 33.45], [-96.0, 33.75], [-98.0, 34.0], [-100.0, 34.45], [-100.0, 36.5], [-103.0, 36.5]]]}}
